NORAD_CAT_ID,OBJECT_NAME,OBJECT_TYPE,EPOCH,MEAN_MOTION,ECCENTRICITY,INCLINATION,RA_OF_ASC_NODE,ARG_OF_PERICENTER,MEAN_ANOMALY,BSTAR,MEAN_MOTION_DOT,MEAN_MOTION_DDOT,TLE_LINE0,TLE_LINE1,TLE_LINE2,SEMIMAJOR_AXIS,PERIOD,APOGEE,PERIGEE,DECAYED
52849.0,STARLINK-4197,PAYLOAD,2022-12-29 21:09:30,15.08839646,0.0003381,53.2166,217.6365,31.2147,328.9045,-0.00011521,-2.122e-05,0.0,0 STARLINK-4197,1 52849U 22062V   22363.88159892 -.00002122  00000-0 -11521-3 0  9998,2 52849  53.2166 217.6365 0003381  31.2147 328.9045 15.08839646 30415,6917.880999999999,95.438,542.085,537.408,0.0
52849.0,STARLINK-4197,PAYLOAD,2022-12-30 00:20:16,15.0883804,0.0003457,53.216,217.0431,29.6089,330.5098,-9.3907e-05,-1.783e-05,0.0,0 STARLINK-4197,1 52849U 22062V   22364.01407937 -.00001783  00000-0 -93907-4 0  9991,2 52849  53.2160 217.0431 0003457  29.6089 330.5098 15.08838040 29947,6917.886,95.438,542.143,537.36,0.0
52849.0,STARLINK-4197,PAYLOAD,2022-12-31 06:32:35,15.08846698,0.0003453,53.2169,211.3927,30.7053,329.414,0.00015419,2.167e-05,0.0,0 STARLINK-4197,1 52849U 22062V   22365.27263175  .00002167  00000-0  15419-3 0  9990,2 52849  53.2169 211.3927 0003453  30.7053 329.4140 15.08846698 30623,6917.86,95.437,542.114,537.336,0.0
52849.0,STARLINK-4197,PAYLOAD,2022-12-31 12:54:07,15.08844607,0.0003571,53.2169,210.2031,30.6951,329.4249,0.00027093,4.027e-05,0.0,0 STARLINK-4197,1 52849U 22062V   22365.53759258  .00004027  00000-0  27093-3 0  9999,2 52849  53.2169 210.2031 0003571  30.6951 329.4249 15.08844607 30172,6917.866,95.437,542.202,537.261,0.0
52849.0,STARLINK-4197,PAYLOAD,2022-12-31 20:51:04,15.08840595,0.000356,53.2162,208.7163,33.1469,326.9746,0.00014434,2.009e-05,0.0,0 STARLINK-4197,1 52849U 22062V   22365.86879871  .00002009  00000-0  14434-3 0  9992,2 52849  53.2162 208.7163 0003560  33.1469 326.9746 15.08840595 30719,6917.879,95.438,542.206,537.281,0.0
52849.0,STARLINK-4197,PAYLOAD,2023-01-01 14:20:19,15.08833564,0.0003531,53.2167,205.4461,35.7736,324.3492,-0.00011986,-2.196e-05,0.0,0 STARLINK-4197,1 52849U 22062V   23001.59744284 -.00002196  00000-0 -11986-3 0  9997,2 52849  53.2167 205.4461 0003531  35.7736 324.3492 15.08833564 30822,6917.9,95.438,542.2080000000002,537.322,0.0
52849.0,STARLINK-4197,PAYLOAD,2023-01-01 20:41:51,15.08832437,0.0003571,53.2169,204.2567,36.0984,324.0248,-0.00012402,-2.262e-05,0.0,0 STARLINK-4197,1 52849U 22062V   23001.86240446 -.00002262  00000-0 -12402-3 0  9996,2 52849  53.2169 204.2567 0003571  36.0984 324.0248 15.08832437 30375,6917.904,95.438,542.239,537.298,0.0
52849.0,STARLINK-4197,PAYLOAD,2023-01-02 14:11:06,15.08836775,0.0003543999999999,53.2177,200.9855,34.5109,325.6113,-2.1355e-05,-6.29e-06,0.0,0 STARLINK-4197,1 52849U 22062V   23002.59104969 -.00000629  00000-0 -21355-4 0  9999,2 52849  53.2177 200.9855 0003544  34.5109 325.6113 15.08836775 30488,6917.89,95.438,542.207,537.304,0.0
52849.0,STARLINK-4197,PAYLOAD,2023-01-02 22:08:02,15.08827094,0.0003702,53.2174,199.4984,35.9512,324.1728,0.00015395,2.161e-05,0.0,0 STARLINK-4197,1 52849U 22062V   23002.92225337  .00002161  00000-0  15395-3 0  9996,2 52849  53.2174 199.4984 0003702  35.9512 324.1728 15.08827094 31020,6917.92,95.438,542.346,537.224,0.0
52849.0,STARLINK-4197,PAYLOAD,2023-01-03 12:26:30,15.08831037,0.0003616,53.2172,196.8218,34.4967,325.6259,0.00015184,2.128e-05,0.0,0 STARLINK-4197,1 52849U 22062V   23003.51841337  .00002128  00000-0  15184-3 0  9995,2 52849  53.2172 196.8218 0003616  34.4967 325.6259 15.08831037 30623,6917.908,95.438,542.274,537.271,0.0
52849.0,STARLINK-4197,PAYLOAD,2023-01-04 05:55:45,15.08832422,0.0003618,53.217,193.551,35.5445,324.5787,9.8748e-05,1.283e-05,0.0,0 STARLINK-4197,1 52849U 22062V   23004.24705918  .00001283  00000-0  98748-4 0  9999,2 52849  53.2170 193.5510 0003618  35.5445 324.5787 15.08832422 31225,6917.904,95.438,542.271,537.266,0.0
52849.0,STARLINK-4197,PAYLOAD,2023-01-04 12:17:18,15.08834056,0.0003598,53.2169,192.3617,35.3701,324.753,0.00010492,1.381e-05,0.0,0 STARLINK-4197,1 52849U 22062V   23004.51201927  .00001381  00000-0  10492-3 0  9998,2 52849  53.2169 192.3617 0003598  35.3701 324.7530 15.08834056 30770,6917.899,95.438,542.253,537.274,0.0
52849.0,STARLINK-4197,PAYLOAD,2023-01-04 21:49:36,15.08841381,0.0003656,53.2169,190.5775,36.7028,323.4214,0.00012873,1.761e-05,0.0,0 STARLINK-4197,1 52849U 22062V   23004.90945530  .00001761  00000-0  12873-3 0  9993,2 52849  53.2169 190.5775 0003656  36.7028 323.4214 15.08841381 31323,6917.876,95.437,542.27,537.212,0.0
52849.0,STARLINK-4197,PAYLOAD,2023-01-05 05:46:31,15.08854263,0.0003718,53.2176,189.0917,36.984,323.1408,0.00022153,3.24e-05,0.0,0 STARLINK-4197,1 52849U 22062V   23005.24064474  .00003240  00000-0  22153-3 0  9996,2 52849  53.2176 189.0917 0003718  36.9840 323.1408 15.08854263 31375,6917.837,95.437,542.274,537.13,0.0
52849.0,STARLINK-4197,PAYLOAD,2023-01-05 12:08:04,15.08852268,0.0003891,53.2181,187.9045,38.2615,321.8653,0.00023736,3.492e-05,0.0,0 STARLINK-4197,1 52849U 22062V   23005.50561068  .00003492  00000-0  23736-3 0  9993,2 52849  53.2181 187.9045 0003891  38.2615 321.8653 15.08852268 31412,6917.843000000003,95.437,542.4,537.016,0.0
52849.0,STARLINK-4197,PAYLOAD,2023-01-05 18:29:37,15.08850591,0.0003813999999999,53.2179,186.7143,38.8634,321.2632,0.00020941,3.047e-05,0.0,0 STARLINK-4197,1 52849U 22062V   23005.77057020  .00003047  00000-0  20941-3 0  9991,2 52849  53.2179 186.7143 0003814  38.8634 321.2632 15.08850591 30964,6917.848000000001,95.437,542.351,537.075,0.0
52849.0,STARLINK-4197,PAYLOAD,2023-01-06 11:58:51,15.08853558,0.0003703,53.216,183.441,41.6803,318.447,0.00018985,2.735e-05,0.0,0 STARLINK-4197,1 52849U 22062V   23006.49920380  .00002735  00000-0  18985-3 0  9997,2 52849  53.2160 183.4410 0003703  41.6803 318.4470 15.08853558 31563,6917.839,95.437,542.266,537.1419999999998,0.0
52849.0,STARLINK-4197,PAYLOAD,2023-01-06 21:31:09,15.08851057,0.0003705,53.2159,181.6563,41.0385,319.0885,0.00010462,1.377e-05,0.0,0 STARLINK-4197,1 52849U 22062V   23006.89664304  .00001377  00000-0  10462-3 0  9995,2 52849  53.2159 181.6563 0003705  41.0385 319.0885 15.08851057 31133,6917.847,95.437,542.275,537.149,0.0
52849.0,STARLINK-4197,PAYLOAD,2023-01-07 11:49:37,15.08846961,0.0003403,53.217,178.98,37.599,322.524,1.023e-05,-1.26e-06,0.0,0 STARLINK-4197,1 52849U 22062V   23007.49279983 -.00000126  00000-0  10230-4 0  9993,2 52849  53.2170 178.9800 0003403  37.5990 322.5240 15.08846961 31712,6917.859,95.437,542.078,537.37,0.0
52849.0,STARLINK-4197,PAYLOAD,2023-01-07 21:21:57,15.0884367,0.0003538,53.2179,177.196,38.332,321.7923,-1.7122e-05,-5.61e-06,0.0,0 STARLINK-4197,1 52849U 22062V   23007.89024374 -.00000561  00000-0 -17122-4 0  9990,2 52849  53.2179 177.1960 0003538  38.3320 321.7923 15.08843670 31289,6917.8690000000015,95.437,542.182,537.2869999999998,0.0
52849.0,STARLINK-4197,PAYLOAD,2023-01-08 11:40:24,15.08846053,0.0003522,53.218,174.5197,38.557,321.5673,6.7073e-05,7.79e-06,0.0,0 STARLINK-4197,1 52849U 22062V   23008.48639683  .00000779  00000-0  67073-4 0  9990,2 52849  53.2180 174.5197 0003522  38.5570 321.5673 15.08846053 31374,6917.861999999999,95.437,542.163,537.29,0.0
52849.0,STARLINK-4197,PAYLOAD,2023-01-08 19:37:20,15.08839138,0.0003488,53.218,173.0329,39.7993,320.3254,3.0318000000000007e-05,1.94e-06,0.0,0 STARLINK-4197,1 52849U 22062V   23008.81760234  .00000194  00000-0  30318-4 0  9997,2 52849  53.2180 173.0329 0003488  39.7993 320.3254 15.08839138 31916,6917.883000000002,95.438,542.161,537.335,0.0
52849.0,STARLINK-4197,PAYLOAD,2023-01-08 21:12:43,15.08839034,0.0003491,53.2183,172.7357,39.9312,320.1937,2.9556e-05,1.82e-06,0.0,0 STARLINK-4197,1 52849U 22062V   23008.88384225  .00000182  00000-0  29556-4 0  9995,2 52849  53.2183 172.7357 0003491  39.9312 320.1937 15.08839034 31435,6917.883000000002,95.438,542.163,537.3330000000002,0.0
52849.0,STARLINK-4197,PAYLOAD,2023-01-09 11:31:12,15.08838701,0.000347,53.2181,170.0595,38.837,321.2871,8.9273e-05,1.132e-05,0.0,0 STARLINK-4197,1 52849U 22062V   23009.48000004  .00001132  00000-0  89273-4 0  9990,2 52849  53.2181 170.0595 0003470  38.8370 321.2871 15.08838701 31526,6917.884,95.438,542.15,537.349,0.0
52849.0,STARLINK-4197,PAYLOAD,2023-01-10 11:21:59,15.08839516,0.0003453,53.2182,165.59900000000005,39.0267,321.0974,3.2004e-05,2.21e-06,0.0,0 STARLINK-4197,1 52849U 22062V   23010.47360337  .00000221  00000-0  32004-4 0  9997,2 52849  53.2182 165.5990 0003453  39.0267 321.0974 15.08839516 32162,6917.882,95.438,542.136,537.3580000000002,0.0
52849.0,STARLINK-4197,PAYLOAD,2023-01-10 20:54:18,15.08841562,0.0003367,53.2184,163.8152,36.633,323.4892,-2.2205e-05,-6.42e-06,0.0,0 STARLINK-4197,1 52849U 22062V   23010.87104388 -.00000642  00000-0 -22205-4 0  9994,2 52849  53.2184 163.8152 0003367  36.6330 323.4892 15.08841562 31734,6917.876,95.437,542.07,537.411,0.0
52849.0,STARLINK-4197,PAYLOAD,2023-01-11 03:15:51,15.08828489,0.0004008999999999,53.2169,162.6261,46.9248,313.208,-2.0582e-05,-6.17e-06,0.0,0 STARLINK-4197,1 52849U 22062V   23011.13601758 -.00000617  00000-0 -20582-4 0  9995,2 52849  53.2169 162.6261 0004009  46.9248 313.2080 15.08828489 32269,6917.916,95.438,542.554,537.007,0.0
52849.0,STARLINK-4197,PAYLOAD,2023-01-11 12:48:10,15.08830874,0.0003336,53.2181,160.8416,38.8328,321.2904,-1.6771e-05,-5.56e-06,0.0,0 STARLINK-4197,1 52849U 22062V   23011.53345471 -.00000556  00000-0 -16771-4 0  9993,2 52849  53.2181 160.8416 0003336  38.8328 321.2904 15.08830874 31833,6917.908,95.438,542.081,537.465,0.0
52849.0,STARLINK-4197,PAYLOAD,2023-01-11 19:09:42,15.08836933,0.0003398,53.2169,159.6514,42.1095,318.0158,8.1097e-05,1.002e-05,0.0,0 STARLINK-4197,1 52849U 22062V   23011.79840993  .00001002  00000-0  81097-4 0  9998,2 52849  53.2169 159.6514 0003398  42.1095 318.0158 15.08836933 32367,6917.89,95.438,542.105,537.404,0.0
